1 29155U 06018A   11298.34365988 -.00000256  00000-0  10000-3 0  7912
2 29155 000.1876 079.2338 0000798 026.2074 336.9263 01.00277168 19883